JILIN-1 GAOFEN 3A       
1 44312U 19032C   26068.74542089  .00016264  00000+0  55381-3 0  9993
2 44312  44.9746 183.2861 0002618 111.2900 248.8263 15.30271310372592
STARLINK-35409          
1 66196U 25243V   26068.75235970  .00013517  00000+0  46772-3 0  9999
2 66196  53.1592 244.9387 0000994 134.1816 225.9266 15.30196191 20660
